[{"OBJECT_NAME":"STARLINK-4800","OBJECT_ID":"2022-114AN","EPOCH":"2026-03-09T20:32:32.987040","MEAN_MOTION":15.08840104,"ECCENTRICITY":0.00013511,"INCLINATION":53.2176,"RA_OF_ASC_NODE":283.6078,"ARG_OF_PERICENTER":91.7853,"MEAN_ANOMALY":268.3293,"EPHEMERIS_TYPE":0,"CLASSIFICATION_TYPE":"U","NORAD_CAT_ID":53854,"ELEMENT_SET_NO":999,"REV_AT_EPOCH":19313,"BSTAR":-2.3586364e-5,"MEAN_MOTION_DOT":-6.63e-6,"MEAN_MOTION_DDOT":0},{"OBJECT_NAME":"THE ARAB SATELLITE 813","OBJECT_ID":"2025-292B","EPOCH":"2026-03-09T21:37:26.354208","MEAN_MOTION":15.05594469,"ECCENTRICITY":0.00142186,"INCLINATION":97.6379,"RA_OF_ASC_NODE":145.6178,"ARG_OF_PERICENTER":341.4344,"MEAN_ANOMALY":18.6363,"EPHEMERIS_TYPE":0,"CLASSIFICATION_TYPE":"U","NORAD_CAT_ID":66994,"ELEMENT_SET_NO":999,"REV_AT_EPOCH":1350,"BSTAR":0.00043840303,"MEAN_MOTION_DOT":6.274e-5,"MEAN_MOTION_DDOT":0}]
